STARLINK-32228          
1 60445U 24144W   26068.68742168 -.00000690  00000+0 -11178-4 0  9996
2 60445  53.1607 216.7931 0001156  99.2553 260.8579 15.30176905 89357
FLOCK 4BE-27            
1 60513U 24149AX  26068.75339182  .00011439  00000+0  36576-3 0  9992
2 60513  97.3862 150.6783 0002732 305.8980  54.2008 15.32593322 86906
